[
  {
    "OBJECT_NAME": "STARLINK-3306",
    "OBJECT_ID": "21125H",
    "EPOCH": "2025-11-11T07:37:48.396000",
    "MEAN_MOTION": 15.08841256,
    "ECCENTRICITY": 0.0001229,
    "INCLINATION": 53.2177,
    "RA_OF_ASC_NODE": 50.5,
    "ARG_OF_PERICENTER": 88.2076,
    "MEAN_ANOMALY": 271.9057,
    "EPHEMERIS_TYPE": 0,
    "CLASSIFICATION_TYPE": "U",
    "NORAD_CAT_ID": 50163,
    "ELEMENT_SET_NO": 999,
    "REV_AT_EPOCH": 21886,
    "BSTAR": 5.7868e-05,
    "MEAN_MOTION_DOT": 6.33e-06,
    "MEAN_MOTION_DDOT": 0.0,
    "TLE_LINE1": "1 50163U 21125H   25315.31792125  .00000633  00000+0  57868-4 0  9991",
    "TLE_LINE2": "2 50163  53.2177  50.5000 0001229  88.2076 271.9057 15.08841256218863",
    "COMMENT": "Grouped by shell and plane from TLE"
  },
  {
    "OBJECT_NAME": "STARLINK-3289",
    "OBJECT_ID": "21125T",
    "EPOCH": "2025-11-11T07:00:43.011072",
    "MEAN_MOTION": 15.08840304,
    "ECCENTRICITY": 0.0001327,
    "INCLINATION": 53.2172,
    "RA_OF_ASC_NODE": 50.6942,
    "ARG_OF_PERICENTER": 94.22,
    "MEAN_ANOMALY": 265.8944,
    "EPHEMERIS_TYPE": 0,
    "CLASSIFICATION_TYPE": "U",
    "NORAD_CAT_ID": 50173,
    "ELEMENT_SET_NO": 999,
    "REV_AT_EPOCH": 21887,
    "BSTAR": 0.0,
    "MEAN_MOTION_DOT": -2.93e-06,
    "MEAN_MOTION_DDOT": 0.0,
    "TLE_LINE1": "1 50173U 21125T   25315.29216448 -.00000293  00000+0 -33781-6 0  9992",
    "TLE_LINE2": "2 50173  53.2172  50.6942 0001327  94.2200 265.8944 15.08840304218871",
    "COMMENT": "Grouped by shell and plane from TLE"
  },
  {
    "OBJECT_NAME": "STARLINK-3292",
    "OBJECT_ID": "21125U",
    "EPOCH": "2025-11-11T06:58:51.569760",
    "MEAN_MOTION": 15.08850453,
    "ECCENTRICITY": 0.0001377,
    "INCLINATION": 53.2175,
    "RA_OF_ASC_NODE": 56.2427,
    "ARG_OF_PERICENTER": 91.819,
    "MEAN_ANOMALY": 268.296,
    "EPHEMERIS_TYPE": 0,
    "CLASSIFICATION_TYPE": "U",
    "NORAD_CAT_ID": 50174,
    "ELEMENT_SET_NO": 999,
    "REV_AT_EPOCH": 21883,
    "BSTAR": 0.00028272999999999997,
    "MEAN_MOTION_DOT": 4.216e-05,
    "MEAN_MOTION_DDOT": 0.0,
    "TLE_LINE1": "1 50174U 21125U   25315.29087465  .00004216  00000+0  28273-3 0  9992",
    "TLE_LINE2": "2 50174  53.2175  56.2427 0001377  91.8190 268.2960 15.08850453218838",
    "COMMENT": "Grouped by shell and plane from TLE"
  },
  {
    "OBJECT_NAME": "STARLINK-3272",
    "OBJECT_ID": "21125AH",
    "EPOCH": "2025-11-11T06:39:30.438432",
    "MEAN_MOTION": 15.08822192,
    "ECCENTRICITY": 0.000163,
    "INCLINATION": 53.2183,
    "RA_OF_ASC_NODE": 50.6925,
    "ARG_OF_PERICENTER": 104.5916,
    "MEAN_ANOMALY": 255.5258,
    "EPHEMERIS_TYPE": 0,
    "CLASSIFICATION_TYPE": "U",
    "NORAD_CAT_ID": 50187,
    "ELEMENT_SET_NO": 999,
    "REV_AT_EPOCH": 21884,
    "BSTAR": 0.00031311,
    "MEAN_MOTION_DOT": 4.696e-05,
    "MEAN_MOTION_DDOT": 0.0,
    "TLE_LINE1": "1 50187U 21125AH  25315.27743563  .00004696  00000+0  31311-3 0  9991",
    "TLE_LINE2": "2 50187  53.2183  50.6925 0001630 104.5916 255.5258 15.08822192218841",
    "COMMENT": "Grouped by shell and plane from TLE"
  },
  {
    "OBJECT_NAME": "STARLINK-3268",
    "OBJECT_ID": "21125AL",
    "EPOCH": "2025-11-11T06:23:36.618720",
    "MEAN_MOTION": 15.08843083,
    "ECCENTRICITY": 0.0001407,
    "INCLINATION": 53.2214,
    "RA_OF_ASC_NODE": 50.7447,
    "ARG_OF_PERICENTER": 96.4027,
    "MEAN_ANOMALY": 263.7126,
    "EPHEMERIS_TYPE": 0,
    "CLASSIFICATION_TYPE": "U",
    "NORAD_CAT_ID": 50190,
    "ELEMENT_SET_NO": 999,
    "REV_AT_EPOCH": 21885,
    "BSTAR": 0.0001919,
    "MEAN_MOTION_DOT": 2.768e-05,
    "MEAN_MOTION_DDOT": 0.0,
    "TLE_LINE1": "1 50190U 21125AL  25315.26639605  .00002768  00000+0  19190-3 0  9994",
    "TLE_LINE2": "2 50190  53.2214  50.7447 0001407  96.4027 263.7126 15.08843083218852",
    "COMMENT": "Grouped by shell and plane from TLE"
  },
  {
    "OBJECT_NAME": "STARLINK-3259",
    "OBJECT_ID": "21125AN",
    "EPOCH": "2025-11-11T06:18:18.937152",
    "MEAN_MOTION": 15.08848013,
    "ECCENTRICITY": 0.0001848,
    "INCLINATION": 53.2183,
    "RA_OF_ASC_NODE": 50.7586,
    "ARG_OF_PERICENTER": 82.7343,
    "MEAN_ANOMALY": 277.3859,
    "EPHEMERIS_TYPE": 0,
    "CLASSIFICATION_TYPE": "U",
    "NORAD_CAT_ID": 50192,
    "ELEMENT_SET_NO": 999,
    "REV_AT_EPOCH": 21885,
    "BSTAR": 0.00010861,
    "MEAN_MOTION_DOT": 1.441e-05,
    "MEAN_MOTION_DDOT": 0.0,
    "TLE_LINE1": "1 50192U 21125AN  25315.26271918  .00001441  00000+0  10861-3 0  9998",
    "TLE_LINE2": "2 50192  53.2183  50.7586 0001848  82.7343 277.3859 15.08848013218853",
    "COMMENT": "Grouped by shell and plane from TLE"
  },
  {
    "OBJECT_NAME": "STARLINK-3261",
    "OBJECT_ID": "21125AP",
    "EPOCH": "2025-11-11T06:34:12.582336",
    "MEAN_MOTION": 15.08843046,
    "ECCENTRICITY": 0.0001531,
    "INCLINATION": 53.2176,
    "RA_OF_ASC_NODE": 50.7071,
    "ARG_OF_PERICENTER": 94.5804,
    "MEAN_ANOMALY": 265.5363,
    "EPHEMERIS_TYPE": 0,
    "CLASSIFICATION_TYPE": "U",
    "NORAD_CAT_ID": 50193,
    "ELEMENT_SET_NO": 999,
    "REV_AT_EPOCH": 21890,
    "BSTAR": 8.740000000000001e-05,
    "MEAN_MOTION_DOT": 1.103e-05,
    "MEAN_MOTION_DDOT": 0.0,
    "TLE_LINE1": "1 50193U 21125AP  25315.27375674  .00001103  00000+0  87400-4 0  9993",
    "TLE_LINE2": "2 50193  53.2176  50.7071 0001531  94.5804 265.5363 15.08843046218903",
    "COMMENT": "Grouped by shell and plane from TLE"
  },
  {
    "OBJECT_NAME": "STARLINK-3266",
    "OBJECT_ID": "21125AR",
    "EPOCH": "2025-11-11T06:28:54.130080",
    "MEAN_MOTION": 15.08831812,
    "ECCENTRICITY": 0.0001303,
    "INCLINATION": 53.2188,
    "RA_OF_ASC_NODE": 50.7257,
    "ARG_OF_PERICENTER": 77.9006,
    "MEAN_ANOMALY": 282.2132,
    "EPHEMERIS_TYPE": 0,
    "CLASSIFICATION_TYPE": "U",
    "NORAD_CAT_ID": 50195,
    "ELEMENT_SET_NO": 999,
    "REV_AT_EPOCH": 21885,
    "BSTAR": 0.0001574,
    "MEAN_MOTION_DOT": 2.218e-05,
    "MEAN_MOTION_DDOT": 0.0,
    "TLE_LINE1": "1 50195U 21125AR  25315.27007095  .00002218  00000+0  15740-3 0  9999",
    "TLE_LINE2": "2 50195  53.2188  50.7257 0001303  77.9006 282.2132 15.08831812218852",
    "COMMENT": "Grouped by shell and plane from TLE"
  },
  {
    "OBJECT_NAME": "STARLINK-3267",
    "OBJECT_ID": "21125AT",
    "EPOCH": "2025-11-11T06:07:42.767040",
    "MEAN_MOTION": 15.08850124,
    "ECCENTRICITY": 0.0002201,
    "INCLINATION": 53.2176,
    "RA_OF_ASC_NODE": 50.7919,
    "ARG_OF_PERICENTER": 85.9658,
    "MEAN_ANOMALY": 274.1586,
    "EPHEMERIS_TYPE": 0,
    "CLASSIFICATION_TYPE": "U",
    "NORAD_CAT_ID": 50197,
    "ELEMENT_SET_NO": 999,
    "REV_AT_EPOCH": 21890,
    "BSTAR": 0.0,
    "MEAN_MOTION_DOT": -1.099e-05,
    "MEAN_MOTION_DDOT": 0.0,
    "TLE_LINE1": "1 50197U 21125AT  25315.25535610 -.00001099  00000+0 -50934-4 0  9991",
    "TLE_LINE2": "2 50197  53.2176  50.7919 0002201  85.9658 274.1586 15.08850124218902",
    "COMMENT": "Grouped by shell and plane from TLE"
  },
  {
    "OBJECT_NAME": "STARLINK-3264",
    "OBJECT_ID": "21125AU",
    "EPOCH": "2025-11-11T07:21:54.190080",
    "MEAN_MOTION": 15.08840383,
    "ECCENTRICITY": 0.0001616,
    "INCLINATION": 53.2173,
    "RA_OF_ASC_NODE": 50.5607,
    "ARG_OF_PERICENTER": 89.8095,
    "MEAN_ANOMALY": 270.3083,
    "EPHEMERIS_TYPE": 0,
    "CLASSIFICATION_TYPE": "U",
    "NORAD_CAT_ID": 50198,
    "ELEMENT_SET_NO": 999,
    "REV_AT_EPOCH": 21886,
    "BSTAR": 3.0494e-05,
    "MEAN_MOTION_DOT": 1.97e-06,
    "MEAN_MOTION_DDOT": 0.0,
    "TLE_LINE1": "1 50198U 21125AU  25315.30687720  .00000197  00000+0  30494-4 0  9993",
    "TLE_LINE2": "2 50198  53.2173  50.5607 0001616  89.8095 270.3083 15.08840383218860",
    "COMMENT": "Grouped by shell and plane from TLE"
  },
  {
    "OBJECT_NAME": "STARLINK-3270",
    "OBJECT_ID": "21125AV",
    "EPOCH": "2025-11-11T06:55:23.913408",
    "MEAN_MOTION": 15.08854145,
    "ECCENTRICITY": 0.0001387,
    "INCLINATION": 53.2178,
    "RA_OF_ASC_NODE": 50.6438,
    "ARG_OF_PERICENTER": 86.8476,
    "MEAN_ANOMALY": 273.2675,
    "EPHEMERIS_TYPE": 0,
    "CLASSIFICATION_TYPE": "U",
    "NORAD_CAT_ID": 50199,
    "ELEMENT_SET_NO": 999,
    "REV_AT_EPOCH": 21885,
    "BSTAR": 0.0,
    "MEAN_MOTION_DOT": -3.417e-05,
    "MEAN_MOTION_DDOT": 0.0,
    "TLE_LINE1": "1 50199U 21125AV  25315.28847122 -.00003417  00000+0 -19664-3 0  9990",
    "TLE_LINE2": "2 50199  53.2178  50.6438 0001387  86.8476 273.2675 15.08854145218853",
    "COMMENT": "Grouped by shell and plane from TLE"
  },
  {
    "OBJECT_NAME": "STARLINK-3235",
    "OBJECT_ID": "21125AW",
    "EPOCH": "2025-11-11T05:51:49.372416",
    "MEAN_MOTION": 15.08831872,
    "ECCENTRICITY": 9.84e-05,
    "INCLINATION": 53.2179,
    "RA_OF_ASC_NODE": 50.8017,
    "ARG_OF_PERICENTER": 80.2723,
    "MEAN_ANOMALY": 279.8381,
    "EPHEMERIS_TYPE": 0,
    "CLASSIFICATION_TYPE": "U",
    "NORAD_CAT_ID": 50200,
    "ELEMENT_SET_NO": 999,
    "REV_AT_EPOCH": 21886,
    "BSTAR": 0.0,
    "MEAN_MOTION_DOT": -4.39e-06,
    "MEAN_MOTION_DDOT": 0.0,
    "TLE_LINE1": "1 50200U 21125AW  25315.24432144 -.00000439  00000+0 -95138-5 0  9996",
    "TLE_LINE2": "2 50200  53.2179  50.8017 0000984  80.2723 279.8381 15.08831872218866",
    "COMMENT": "Grouped by shell and plane from TLE"
  },
  {
    "OBJECT_NAME": "STARLINK-3256",
    "OBJECT_ID": "21125AY",
    "EPOCH": "2025-11-11T06:50:06.297504",
    "MEAN_MOTION": 15.08842343,
    "ECCENTRICITY": 0.0001677,
    "INCLINATION": 53.2174,
    "RA_OF_ASC_NODE": 50.6576,
    "ARG_OF_PERICENTER": 101.622,
    "MEAN_ANOMALY": 258.496,
    "EPHEMERIS_TYPE": 0,
    "CLASSIFICATION_TYPE": "U",
    "NORAD_CAT_ID": 50202,
    "ELEMENT_SET_NO": 999,
    "REV_AT_EPOCH": 21885,
    "BSTAR": 6.553400000000001e-05,
    "MEAN_MOTION_DOT": 7.55e-06,
    "MEAN_MOTION_DDOT": 0.0,
    "TLE_LINE1": "1 50202U 21125AY  25315.28479511  .00000755  00000+0  65534-4 0  9996",
    "TLE_LINE2": "2 50202  53.2174  50.6576 0001677 101.6220 258.4960 15.08842343218851",
    "COMMENT": "Grouped by shell and plane from TLE"
  }
]